[{"OBJECT_NAME":"JIAOTONG 5 (HEAD-2H)","OBJECT_ID":"2022-167K","EPOCH":"2026-03-09T23:22:06.822048","MEAN_MOTION":15.70872056,"ECCENTRICITY":0.00036843,"INCLINATION":97.6162,"RA_OF_ASC_NODE":251.2696,"ARG_OF_PERICENTER":321.7019,"MEAN_ANOMALY":38.3981,"EPHEMERIS_TYPE":0,"CLASSIFICATION_TYPE":"U","NORAD_CAT_ID":54691,"ELEMENT_SET_NO":999,"REV_AT_EPOCH":18142,"BSTAR":0.0011277683,"MEAN_MOTION_DOT":0.00142368,"MEAN_MOTION_DDOT":0},{"OBJECT_NAME":"STARLINK-11652 [DTC]","OBJECT_ID":"2025-057J","EPOCH":"2026-03-09T22:00:07.605216","MEAN_MOTION":15.70836302,"ECCENTRICITY":0.00017615,"INCLINATION":42.9998,"RA_OF_ASC_NODE":263.1328,"ARG_OF_PERICENTER":263.6068,"MEAN_ANOMALY":96.4599,"EPHEMERIS_TYPE":0,"CLASSIFICATION_TYPE":"U","NORAD_CAT_ID":63315,"ELEMENT_SET_NO":999,"REV_AT_EPOCH":5724,"BSTAR":0.0009086623,"MEAN_MOTION_DOT":0.00117794,"MEAN_MOTION_DDOT":0}]
